[{"OBJECT_NAME":"STARLINK-36712","OBJECT_ID":"2026-025H","EPOCH":"2026-03-09T18:37:50.950560","MEAN_MOTION":15.75177517,"ECCENTRICITY":6.529e-5,"INCLINATION":97.2833,"RA_OF_ASC_NODE":180.3591,"ARG_OF_PERICENTER":105.1896,"MEAN_ANOMALY":254.9441,"EPHEMERIS_TYPE":0,"CLASSIFICATION_TYPE":"U","NORAD_CAT_ID":67700,"ELEMENT_SET_NO":999,"REV_AT_EPOCH":595,"BSTAR":0.0017010842,"MEAN_MOTION_DOT":0.00261384,"MEAN_MOTION_DDOT":0},{"OBJECT_NAME":"COSMOS 2251 DEB","OBJECT_ID":"1993-036AKA","EPOCH":"2026-03-09T09:22:03.575424","MEAN_MOTION":15.68318455,"ECCENTRICITY":0.0015577,"INCLINATION":74.005,"RA_OF_ASC_NODE":188.7318,"ARG_OF_PERICENTER":331.7378,"MEAN_ANOMALY":28.2997,"EPHEMERIS_TYPE":0,"CLASSIFICATION_TYPE":"U","NORAD_CAT_ID":35432,"ELEMENT_SET_NO":999,"REV_AT_EPOCH":88835,"BSTAR":0.011294709,"MEAN_MOTION_DOT":0.01441733,"MEAN_MOTION_DDOT":0}]
